0 IRIDIUM 20
1 25577U 98074A   13281.44788817  .00000077  00000-0  20303-4 0  3323
2 25577 086.3928 098.7789 0002105 107.1570 252.9857 14.34218737775266
0 IRIDIUM 20
1 25577U 98074A   13282.49441508  .00000084  00000-0  23077-4 0  3332
2 25577 086.3927 098.3410 0002110 107.3866 252.7561 14.34219071775417
0 IRIDIUM 20
1 25577U 98074A   13282.56418350  .00000084  00000-0  22962-4 0  3342
2 25577 086.3928 098.3118 0002111 107.4994 252.6433 14.34219103775421
0 IRIDIUM 20
1 25577U 98074A   13283.47117327  .00000107  00000-0  31092-4 0  3354
2 25577 086.3927 097.9324 0002116 107.3176 252.8251 14.34219477775558
0 IRIDIUM 20
1 25577U 98074A   13284.44793132  .00000110  00000-0  32180-4 0  3360
2 25577 086.3927 097.5237 0002114 107.5062 252.6365 14.34219742775695
0 IRIDIUM 20
1 25577U 98074A   13285.07584697  .00000109  00000-0  31724-4 0  3376
2 25577 086.3927 097.2609 0002109 107.5851 252.5576 14.34220088775783
0 IRIDIUM 20
1 25577U 98074A   13286.47121503  .00000115  00000-0  34059-4 0  3386
2 25577 086.3928 096.6771 0002112 107.4830 252.6596 14.34220566775983
0 IRIDIUM 20
1 25577U 98074A   13287.44797246  .00000116  00000-0  34506-4 0  3396
2 25577 086.3930 096.2684 0002109 107.6014 252.5412 14.34220798776127
0 IRIDIUM 20
1 25577U 98074A   13288.49449794  .00000151  00000-0  46704-4 0  3408
2 25577 086.3932 095.8305 0002109 107.7922 252.3504 14.34221231776272
0 IRIDIUM 20
1 25577U 98074A   13289.40148649  .00000118  00000-0  35031-4 0  3410
2 25577 086.3934 095.4510 0002111 108.0272 252.1154 14.34221506776402
0 IRIDIUM 20
1 25577U 98074A   13290.37824320  .00000127  00000-0  38286-4 0  3421
2 25577 086.3935 095.0423 0002117 108.1416 252.0010 14.34221525776545
0 IRIDIUM 20
1 25577U 98074A   13291.49454051  .00000176  00000-0  55888-4 0  3437
2 25577 086.3938 094.5754 0002105 108.1091 252.0334 14.34217977776708
0 IRIDIUM 20
1 25577U 98074A   13292.47129949  .00000180  00000-0  57138-4 0  3447
2 25577 086.3939 094.1669 0002103 108.3288 251.8137 14.34218115776846
0 IRIDIUM 20
1 25577U 98074A   13293.44805835  .00000204  00000-0  65885-4 0  3456
2 25577 086.3940 093.7583 0002109 108.4553 251.6872 14.34218413776980
0 IRIDIUM 20
1 25577U 98074A   13294.49458553  .00000203  00000-0  65419-4 0  3466
2 25577 086.3940 093.3206 0002116 108.6965 251.4461 14.34218797777130
0 IRIDIUM 20
1 25577U 98074A   13295.40157557  .00000214  00000-0  69514-4 0  3471
2 25577 086.3940 092.9412 0002113 108.7762 251.3663 14.34219043777269
